0 IRIDIUM 119
1 42959U 17061E   24015.57818288  .00000018  00000-0 -52066-6 0  9998
2 42959  86.3953  34.5012 0002406  85.6793 274.4678 14.34213934328162
0 IRIDIUM 107
1 42960U 17061F   24015.59719432  .00000527  00000-0  18126-3 0  9993
2 42960  86.3954  34.5089 0002012  84.6085 275.5340 14.34223541328179
0 IRIDIUM 132
1 42961U 17061G   24015.60354774  .00000181  00000-0  57623-4 0  9992
2 42961  86.3954  34.4918 0002096  82.9042 277.2392 14.34214853328178
0 IRIDIUM 136
1 42962U 17061H   24015.84457055  .00000437  00000-0  14902-3 0  9991
2 42962  86.3954  34.3936 0002452  88.9155 271.2321 14.34215425328223
0 IRIDIUM 139
1 42963U 17061J   24015.99044713  .00000135  00000-0  40987-4 0  9999
2 42963  86.3953  34.3803 0002059  83.6804 276.4627 14.34214240328255
0 IRIDIUM 125
1 42964U 17061K   24015.55913356  .00000527  00000-0  18108-3 0  9994
2 42964  86.3956  34.6056 0002336  82.5347 277.6115 14.34224783328203
0 IRIDIUM 135
1 43070U 17083A   24015.88211872  .00000149  00000-0  46265-4 0  9993
2 43070  86.3989 331.1790 0001952  91.1168 269.0252 14.34217802317544
0 IRIDIUM 138
1 43071U 17083B   24015.97725681  .00000152  00000-0  47233-4 0  9992
2 43071  86.3980 330.8753 0002294  78.0999 282.0454 14.34218372317549
